start=new Date('2021-11-15T00:00:00.000Z').valueOf();
sats=[{"ARG_OF_PERICENTER":"65.3011","REV_AT_EPOCH":"3045","PERIOD":"95.592","LAUNCH_DATE":"2021-04-29","SITE":"AFETR","TLE_LINE2":"2 48335  53.0554 337.8954 0001482  65.3011 294.8132 15.06398395 30457","APOAPSIS":"548.245","RCS_SIZE":"LARGE","OBJECT_ID":"2021-036BM","MEAN_MOTION":"15.06398395","EPHEMERIS_TYPE":"0","REF_FRAME":"TEME","MEAN_MOTION_DDOT":"0.0000000000000","SEMIMAJOR_AXIS":"6925.353","CENTER_NAME":"EARTH","RA_OF_ASC_NODE":"337.8954","MEAN_MOTION_DOT":"0.00001693","GP_ID":"189745791","TIME_SYSTEM":"UTC","ECCENTRICITY":"0.00014820","OBJECT_TYPE":"PAYLOAD","NORAD_CAT_ID":"48335","CLASSIFICATION_TYPE":"U","BSTAR":"0.00013252000000","INCLINATION":"53.0554","MEAN_ANOMALY":"294.8132","OBJECT_NAME":"STARLINK-2441","TLE_LINE1":"1 48335U 21036BM  21318.39319564  .00001693  00000-0  13252-3 0  9995","FILE":"3214995","DECAY_DATE":null,"COUNTRY_CODE":"US","MEAN_ELEMENT_THEORY":"SGP4","ELEMENT_SET_NO":"999","PERIAPSIS":"546.192","EPOCH":"2021-11-14T09:26:12.103296"},{"TLE_LINE1":"1 48353U 21038A   21318.92949742  .00003465  00000-0  25136-3 0  9996","OBJECT_NAME":"STARLINK-2613","INCLINATION":"53.0537","MEAN_ANOMALY":"284.4859","CLASSIFICATION_TYPE":"U","BSTAR":"0.00025136000000","NORAD_CAT_ID":"48353","ECCENTRICITY":"0.00018140","OBJECT_TYPE":"PAYLOAD","TIME_SYSTEM":"UTC","EPOCH":"2021-11-14T22:18:28.577088","PERIAPSIS":"545.935","ELEMENT_SET_NO":"999","COUNTRY_CODE":"US","MEAN_ELEMENT_THEORY":"SGP4","FILE":"3215179","DECAY_DATE":null,"TLE_LINE2":"2 48353  53.0537 235.4873 0001814  75.6331 284.4859 15.06407152 29528","APOAPSIS":"548.448","SITE":"AFETR","LAUNCH_DATE":"2021-05-04","PERIOD":"95.592","REV_AT_EPOCH":"2952","ARG_OF_PERICENTER":"75.6331","MEAN_MOTION_DOT":"0.00003465","RA_OF_ASC_NODE":"235.4873","GP_ID":"189774828","CENTER_NAME":"EARTH","SEMIMAJOR_AXIS":"6925.327","REF_FRAME":"TEME","MEAN_MOTION_DDOT":"0.0000000000000","EPHEMERIS_TYPE":"0","RCS_SIZE":"LARGE","OBJECT_ID":"2021-038A","MEAN_MOTION":"15.06407152"},{"REF_FRAME":"TEME","MEAN_MOTION_DDOT":"0.0000000000000","RCS_SIZE":"LARGE","MEAN_MOTION":"15.06387289","OBJECT_ID":"2021-038B","EPHEMERIS_TYPE":"0","CENTER_NAME":"EARTH","RA_OF_ASC_NODE":"235.4920","MEAN_MOTION_DOT":"0.00001223","GP_ID":"189774579","SEMIMAJOR_AXIS":"6925.388","PERIOD":"95.593","LAUNCH_DATE":"2021-05-04","ARG_OF_PERICENTER":"61.7134","REV_AT_EPOCH":"2952","APOAPSIS":"548.382","TLE_LINE2":"2 48354  53.0551 235.4920 0001631  61.7134 298.4020 15.06387289 29525","SITE":"AFETR","ELEMENT_SET_NO":"999","FILE":"3215179","DECAY_DATE":null,"MEAN_ELEMENT_THEORY":"SGP4","COUNTRY_CODE":"US","PERIAPSIS":"546.123","EPOCH":"2021-11-14T22:13:11.802720","NORAD_CAT_ID":"48354","BSTAR":"0.00010104000000","CLASSIFICATION_TYPE":"U","TIME_SYSTEM":"UTC","OBJECT_TYPE":"PAYLOAD","ECCENTRICITY":"0.00016310","TLE_LINE1":"1 48354U 21038B   21318.92583105  .00001223  00000-0  10104-3 0  9993","MEAN_ANOMALY":"298.4020","INCLINATION":"53.0551","OBJECT_NAME":"STARLINK-2674"},{"EPOCH":"2021-11-14T22:07:52.523616","PERIAPSIS":"545.972","MEAN_ELEMENT_THEORY":"SGP4","COUNTRY_CODE":"US","FILE":"3215179","DECAY_DATE":null,"ELEMENT_SET_NO":"999","OBJECT_NAME":"STARLINK-2635","MEAN_ANOMALY":"296.3927","INCLINATION":"53.0560","TLE_LINE1":"1 48355U 21038C   21318.92213569  .00000653  00000-0  62773-4 0  9994","OBJECT_TYPE":"PAYLOAD","ECCENTRICITY":"0.00018310","TIME_SYSTEM":"UTC","CLASSIFICATION_TYPE":"U","BSTAR":"0.00006277300000","NORAD_CAT_ID":"48355","SEMIMAJOR_AXIS":"6925.375","RA_OF_ASC_NODE":"235.5171","MEAN_MOTION_DOT":"0.00000653","GP_ID":"189773327","CENTER_NAME":"EARTH","EPHEMERIS_TYPE":"0","RCS_SIZE":"LARGE","OBJECT_ID":"2021-038C","MEAN_MOTION":"15.06391486","REF_FRAME":"TEME","MEAN_MOTION_DDOT":"0.0000000000000","SITE":"AFETR","TLE_LINE2":"2 48355  53.0560 235.5171 0001831  63.7250 296.3927 15.06391486 29525","APOAPSIS":"548.508","REV_AT_EPOCH":"2952","ARG_OF_PERICENTER":"63.7250","LAUNCH_DATE":"2021-05-04","PERIOD":"95.593"},{"APOAPSIS":"548.655","TLE_LINE2":"2 48356  53.0631 235.5044 0002039  57.9671 302.1516 15.06390498 29529","SITE":"AFETR","PERIOD":"95.593","LAUNCH_DATE":"2021-05-04","ARG_OF_PERICENTER":"57.9671","REV_AT_EPOCH":"2952","CENTER_NAME":"EARTH","GP_ID":"189773577","MEAN_MOTION_DOT":"0.00000932","RA_OF_ASC_NODE":"235.5044","SEMIMAJOR_AXIS":"6925.378","MEAN_MOTION_DDOT":"0.0000000000000","REF_FRAME":"TEME","OBJECT_ID":"2021-038D","MEAN_MOTION":"15.06390498","RCS_SIZE":"LARGE","EPHEMERIS_TYPE":"0","TLE_LINE1":"1 48356U 21038D   21318.91845262  .00000932  00000-0  81471-4 0  9991","INCLINATION":"53.0631","MEAN_ANOMALY":"302.1516","OBJECT_NAME":"STARLINK-2637","NORAD_CAT_ID":"48356","BSTAR":"0.00008147100000","CLASSIFICATION_TYPE":"U","TIME_SYSTEM":"UTC","OBJECT_TYPE":"PAYLOAD","ECCENTRICITY":"0.00020390","PERIAPSIS":"545.831","EPOCH":"2021-11-14T22:02:34.306368","ELEMENT_SET_NO":"999","DECAY_DATE":null,"FILE":"3215179","COUNTRY_CODE":"US","MEAN_ELEMENT_THEORY":"SGP4"},{"RA_OF_ASC_NODE":"235.5407","MEAN_MOTION_DOT":"-0.00000034","GP_ID":"189774329","CENTER_NAME":"EARTH","SEMIMAJOR_AXIS":"6925.364","REF_FRAME":"TEME","MEAN_MOTION_DDOT":"0.0000000000000","EPHEMERIS_TYPE":"0","RCS_SIZE":"LARGE","OBJECT_ID":"2021-038E","MEAN_MOTION":"15.06395011","APOAPSIS":"548.459","TLE_LINE2":"2 48357  53.0554 235.5407 0001776  72.8507 287.2676 15.06395011 29524","SITE":"AFETR","LAUNCH_DATE":"2021-05-04","PERIOD":"95.592","REV_AT_EPOCH":"2952","ARG_OF_PERICENTER":"72.8507","EPOCH":"2021-11-14T21:57:15.016032","PERIAPSIS":"545.999","ELEMENT_SET_NO":"999","COUNTRY_CODE":"US","MEAN_ELEMENT_THEORY":"SGP4","FILE":"3215179","DECAY_DATE":null,"TLE_LINE1":"1 48357U 21038E   21318.91475713 -.00000034  00000-0  16627-4 0  9997","OBJECT_NAME":"STARLINK-2636","INCLINATION":"53.0554","MEAN_ANOMALY":"287.2676","CLASSIFICATION_TYPE":"U","BSTAR":"0.00001662700000","NORAD_CAT_ID":"48357","ECCENTRICITY":"0.00017760","OBJECT_TYPE":"PAYLOAD","TIME_SYSTEM":"UTC"},{"REV_AT_EPOCH":"2951","ARG_OF_PERICENTER":"66.2559","LAUNCH_DATE":"2021-05-04","PERIOD":"95.592","SITE":"AFETR","TLE_LINE2":"2 48358  53.0520 235.5599 0001853  66.2559 293.8624 15.06396786 29515","APOAPSIS":"548.507","EPHEMERIS_TYPE":"0","RCS_SIZE":"LARGE","MEAN_MOTION":"15.06396786","OBJECT_ID":"2021-038F","REF_FRAME":"TEME","MEAN_MOTION_DDOT":"0.0000000000000","SEMIMAJOR_AXIS":"6925.358","MEAN_MOTION_DOT":"-0.00000258","RA_OF_ASC_NODE":"235.5599","GP_ID":"189775079","CENTER_NAME":"EARTH","OBJECT_TYPE":"PAYLOAD","ECCENTRICITY":"0.00018530","TIME_SYSTEM":"UTC","CLASSIFICATION_TYPE":"U","BSTAR":"0.00000157970000","NORAD_CAT_ID":"48358","OBJECT_NAME":"STARLINK-2624","INCLINATION":"53.0520","MEAN_ANOMALY":"293.8624","TLE_LINE1":"1 48358U 21038F   21318.91107162 -.00000258  00000-0  15797-5 0  9994","MEAN_ELEMENT_THEORY":"SGP4","COUNTRY_CODE":"US","FILE":"3215179","DECAY_DATE":null,"ELEMENT_SET_NO":"999","EPOCH":"2021-11-14T21:51:56.587968","PERIAPSIS":"545.940"},{"PERIAPSIS":"546.005","EPOCH":"2021-11-14T18:35:33.677376","ELEMENT_SET_NO":"999","DECAY_DATE":null,"FILE":"3215179","MEAN_ELEMENT_THEORY":"SGP4","COUNTRY_CODE":"US","TLE_LINE1":"1 48359U 21038G   21318.77469534 -.00000338  00000-0 -38155-5 0  9996","INCLINATION":"53.0559","MEAN_ANOMALY":"293.0240","OBJECT_NAME":"STARLINK-2628","NORAD_CAT_ID":"48359","BSTAR":"-0.00000381550000","CLASSIFICATION_TYPE":"U","TIME_SYSTEM":"UTC","OBJECT_TYPE":"PAYLOAD","ECCENTRICITY":"0.00017800","CENTER_NAME":"EARTH","GP_ID":"189773827","MEAN_MOTION_DOT":"-0.00000338","RA_OF_ASC_NODE":"236.1681","SEMIMAJOR_AXIS":"6925.372","MEAN_MOTION_DDOT":"0.0000000000000","REF_FRAME":"TEME","MEAN_MOTION":"15.06392198","OBJECT_ID":"2021-038G","RCS_SIZE":"LARGE","EPHEMERIS_TYPE":"0","TLE_LINE2":"2 48359  53.0559 236.1681 0001780  67.0937 293.0240 15.06392198 29491","APOAPSIS":"548.470","SITE":"AFETR","PERIOD":"95.593","LAUNCH_DATE":"2021-05-04","ARG_OF_PERICENTER":"67.0937","REV_AT_EPOCH":"2949"},{"CENTER_NAME":"EARTH","MEAN_MOTION_DOT":"0.00002559","RA_OF_ASC_NODE":"237.3689","GP_ID":"189746544","SEMIMAJOR_AXIS":"6925.343","REF_FRAME":"TEME","MEAN_MOTION_DDOT":"0.0000000000000","RCS_SIZE":"LARGE","OBJECT_ID":"2021-038H","MEAN_MOTION":"15.06401848","EPHEMERIS_TYPE":"0","APOAPSIS":"548.534","TLE_LINE2":"2 48360  53.0551 237.3689 0001915  60.0835 300.0344 15.06401848 29459","SITE":"AFETR","PERIOD":"95.592","LAUNCH_DATE":"2021-05-04","ARG_OF_PERICENTER":"60.0835","REV_AT_EPOCH":"2945","PERIAPSIS":"545.882","EPOCH":"2021-11-14T12:08:05.319168","ELEMENT_SET_NO":"999","FILE":"3214995","DECAY_DATE":null,"MEAN_ELEMENT_THEORY":"SGP4","COUNTRY_CODE":"US","TLE_LINE1":"1 48360U 21038H   21318.50561712  .00002559  00000-0  19062-3 0  9999","MEAN_ANOMALY":"300.0344","INCLINATION":"53.0551","OBJECT_NAME":"STARLINK-2622","NORAD_CAT_ID":"48360","BSTAR":"0.00019062000000","CLASSIFICATION_TYPE":"U","TIME_SYSTEM":"UTC","OBJECT_TYPE":"PAYLOAD","ECCENTRICITY":"0.00019150"},{"ECCENTRICITY":"0.00016210","OBJECT_TYPE":"PAYLOAD","TIME_SYSTEM":"UTC","BSTAR":"0.00000581760000","CLASSIFICATION_TYPE":"U","NORAD_CAT_ID":"48361","OBJECT_NAME":"STARLINK-2591","INCLINATION":"53.0460","MEAN_ANOMALY":"290.8534","TLE_LINE1":"1 48361U 21038J   21318.76732500 -.00000195  00000-0  58176-5 0  9999","COUNTRY_CODE":"US","MEAN_ELEMENT_THEORY":"SGP4","DECAY_DATE":null,"FILE":"3215179","ELEMENT_SET_NO":"999","EPOCH":"2021-11-14T18:24:56.880000","PERIAPSIS":"546.131","REV_AT_EPOCH":"2949","ARG_OF_PERICENTER":"69.2629","LAUNCH_DATE":"2021-05-04","PERIOD":"95.593","SITE":"AFETR","APOAPSIS":"548.376","TLE_LINE2":"2 48361  53.0460 236.2663 0001621  69.2629 290.8534 15.06386878 29491","EPHEMERIS_TYPE":"0","OBJECT_ID":"2021-038J","MEAN_MOTION":"15.06386878","RCS_SIZE":"LARGE","MEAN_MOTION_DDOT":"0.0000000000000","REF_FRAME":"TEME","SEMIMAJOR_AXIS":"6925.389","GP_ID":"189774829","RA_OF_ASC_NODE":"236.2663","MEAN_MOTION_DOT":"-0.00000195","CENTER_NAME":"EARTH"}];
